STARLINK-5775           
1 56503U 23065A   23162.36905666  .00001632  00000+0  15893-4 0  9991
2 56503  43.0012 274.4350 0001707 266.7932  93.2741 15.71354846  4853
STARLINK-5716           
1 56504U 23065B   23161.79679199  .00000927  00000+0  10517-4 0  9991
2 56504  42.9992 277.8822 0001612 264.7060  95.3623 15.71352756  5553
STARLINK-5763           
1 56505U 23065C   23162.36874187  .00005352  00000+0  44225-4 0  9990
2 56505  42.9991 274.4315 0001990 270.9754  89.0886 15.71358383  4856
STARLINK-5340           
1 56506U 23065D   23162.36895222  .00001322  00000+0  13525-4 0  9996
2 56506  43.0005 274.4322 0001698 283.7350  76.3329 15.71356187  4853
STARLINK-5333           
1 56507U 23065E   23161.79099370  .00000448  00000+0  68607-5 0  9993
2 56507  43.0009 277.8416 0001720 268.7455  91.3216 15.71353133  5552
STARLINK-5335           
1 56508U 23065F   23162.36863523  .00001666  00000+0  16151-4 0  9996
2 56508  42.9993 274.4304 0001984 286.4519  73.6131 15.71359611  4850
STARLINK-5334           
1 56509U 23065G   23162.36822695 -.00000066  00000+0  29414-5 0  9993
2 56509  43.0010 274.4278 0001598 271.2108  88.8577 15.71339719  4859
STARLINK-5339           
1 56510U 23065H   23161.66924751  .00001104  00000+0  11863-4 0  9994
2 56510  42.9994 278.6463 0001735 271.8644  88.2025 15.71353918  5531
STARLINK-5351           
1 56511U 23065J   23161.66882433  .00001932  00000+0  18178-4 0  9990
2 56511  42.9997 278.6438 0002398 280.8404  79.2194 15.71355692  5535
STARLINK-5349           
1 56512U 23065K   23162.36832241  .00001704  00000+0  16443-4 0  9991
2 56512  42.9998 274.4282 0001855 279.3666  80.6992 15.71352496  4853
STARLINK-5329           
1 56513U 23065L   23162.36779826  .00004121  00000+0  34863-4 0  9993
2 56513  42.9985 274.4243 0001563 268.1569  91.9120 15.71351726  4854
STARLINK-5343           
1 56514U 23065M   23161.38555515  .00075088  00000+0  51842-3 0  9997
2 56514  43.0015 279.9494 0003507 328.7640  31.3019 15.73616430  5496
STARLINK-5348           
1 56515U 23065N   23162.36769121  .00003470  00000+0  29898-4 0  9990
2 56515  43.0002 274.4229 0001752 264.4439  95.6229 15.71355226  4857
STARLINK-5342           
1 56516U 23065P   23162.36790071  .00002378  00000+0  21571-4 0  9995
2 56516  42.9993 274.4239 0001557 276.6926  83.3764 15.71357711  4854
STARLINK-5345           
1 56517U 23065Q   23162.36737384  .00001646  00000+0  15993-4 0  9992
2 56517  43.0010 274.4209 0001854 273.8247  86.2409 15.71357736  4854
STARLINK-5346           
1 56518U 23065R   23161.79552924  .00000902  00000+0  10327-4 0  9994
2 56518  43.0008 277.8728 0001559 271.7224  88.3465 15.71356837  5553
STARLINK-6313           
1 56519U 23065S   23161.79511041  .00000914  00000+0  10417-4 0  9993
2 56519  43.0007 277.8695 0001649 265.9430  94.1249 15.71352460  5553
STARLINK-6344           
1 56520U 23065T   23162.36748336  .00002029  00000+0  18915-4 0  9998
2 56520  43.0000 274.4211 0001304 274.1100  85.9618 15.71348597  4855
STARLINK-6333           
1 56521U 23065U   23161.66777416  .00000606  00000+0  80721-5 0  9996
2 56521  42.9992 278.6355 0001692 273.4740  86.5934 15.71353464  5534
STARLINK-6327           
1 56522U 23065V   23161.66809239 -.00000094  00000+0  27342-5 0  9998
2 56522  43.0005 278.6379 0001721 271.5323  88.5348 15.71349584  5536
STARLINK-6328           
1 56523U 23065W   23161.66756606  .00001175  00000+0  12410-4 0  9997
2 56523  43.0004 278.6338 0001726 276.6281  83.4391 15.71352518  5538
STARLINK-6323           
1 56524U 23065X   23161.66787908  .00001090  00000+0  11764-4 0  9994
2 56524  42.9999 278.6359 0001942 272.7305  87.3341 15.71354703  5533
STARLINK-6329           
1 56525U 23065Y   23162.36653385  .00001730  00000+0  16634-4 0  9996
2 56525  43.0001 274.4132 0001635 272.2688  87.7993 15.71356033  4850
STARLINK-6317           
1 56526U 23065Z   23162.36685498  .00010287  00000+0  81937-4 0  9992
2 56526  43.0013 274.4154 0001601 275.9018  84.1667 15.71312793  4852
STARLINK-6335           
1 56527U 23065AA  23162.36643773  .00001921  00000+0  18093-4 0  9991
2 56527  42.9996 274.4122 0001461 253.2361 106.8347 15.71353182  4854
STARLINK-6337           
1 56528U 23065AB  23162.36663331 -.00005482  00000+0 -38355-4 0  9995
2 56528  42.9979 274.4147 0001571 270.7108  89.3580 15.71375663  4850
STARLINK-6307           
1 56529U 23065AC  23161.66683520  .00001999  00000+0  18685-4 0  9991
2 56529  42.9990 278.6280 0001522 302.3172  57.7549 15.71358602  5531
STARLINK-6318           
1 56530U 23065AD  23162.36632551  .00003049  00000+0  26686-4 0  9997
2 56530  42.9979 274.4127 0001337 295.5626  64.5103 15.71355340  4857
STARLINK-6280           
1 56531U 23065AE  23162.36590771  .00002506  00000+0  22555-4 0  9993
2 56531  42.9997 274.4098 0001309 274.5695  85.5023 15.71346372  4856
STARLINK-6319           
1 56532U 23065AF  23162.36622148  .00002224  00000+0  20401-4 0  9993
2 56532  42.9985 274.4124 0001456 274.0244  86.0457 15.71351615  4855
STARLINK-6310           
1 56533U 23065AG  23161.66661727  .00001436  00000+0  14400-4 0  9998
2 56533  42.9990 278.6268 0001838 267.9772  92.0885 15.71354258  5532
STARLINK-6308           
1 56534U 23065AH  23162.36611423  .00003660  00000+0  31346-4 0  9994
2 56534  42.9994 274.4109 0001786 267.5031  92.5632 15.71355439  4852
STARLINK-6309           
1 56535U 23065AJ  23162.25001157 -.00003348  00000+0 -54509-4 0  9991
2 56535  42.9979 276.2352 0001542 266.0247  61.0139 15.48910902  4825
STARLINK-6312           
1 56536U 23065AK  23162.25001157  .00000706  00000+0  18824-4 0  9995
2 56536  42.9981 276.2359 0001501 266.8638  59.3334 15.48907967  4827
STARLINK-6311           
1 56537U 23065AL  23162.25001157 -.00011019  00000+0 -19345-3 0  9995
2 56537  42.9978 276.2328 0001560 270.2576  57.6224 15.48914381  4822
STARLINK-6314           
1 56538U 23065AM  23161.66651553  .00000220  00000+0  51244-5 0  9997
2 56538  43.0009 278.6250 0001772 280.8905  79.1763 15.71352739  5533
STARLINK-6135           
1 56539U 23065AN  23162.25001157 -.00014024  00000+0 -24794-3 0  9990
2 56539  42.9979 276.2309 0001577 263.0570  65.6650 15.48916740  4829
STARLINK-6136           
1 56540U 23065AP  23162.25001157  .00007992  00000+0  15045-3 0  9995
2 56540  42.9978 276.2385 0001533 263.9686  61.3864 15.48904979  4824
STARLINK-6249           
1 56541U 23065AQ  23162.25001157 -.00022705  00000+0 -40552-3 0  9998
2 56541  42.9978 276.2248 0001599 265.5155  65.7309 15.48923385  4828
STARLINK-6266           
1 56542U 23065AR  23162.25001157 -.00017407  00000+0 -30932-3 0  9993
2 56542  42.9978 276.2279 0001572 267.2300  62.3336 15.48918943  4822
STARLINK-6228           
1 56543U 23065AS  23162.25001157 -.00029123  00000+0 -52220-3 0  9996
2 56543  42.9976 276.2197 0001591 264.4971  68.4316 15.48928340  4821
STARLINK-6226           
1 56544U 23065AT  23162.25001157 -.00020082  00000+0 -35788-3 0  9992
2 56544  42.9980 276.2268 0001580 265.8205  64.5846 15.48921072  4829
STARLINK-6086           
1 56545U 23065AU  23162.25001157 -.00028928  00000+0 -51858-3 0  9996
2 56545  42.9979 276.2174 0001642 267.7842  66.8277 15.48931419  4820
STARLINK-6187           
1 56546U 23065AV  23162.25001157 -.00023071  00000+0 -41215-3 0  9997
2 56546  42.9979 276.2221 0001625 266.5615  65.5264 15.48925132  4827
STARLINK-6291           
1 56547U 23065AW  23162.25001157 -.00045547  00000+0 -82150-3 0  9993
2 56547  42.9977 276.2124 0001586 264.6636  71.6301 15.48940202  4821
STARLINK-6244           
1 56548U 23065AX  23162.25001157 -.00027118  00000+0 -48568-3 0  9993
2 56548  42.9979 276.2179 0001623 268.9606  64.8102 15.48929231  4822
STARLINK-6263           
1 56549U 23065AY  23162.25001157 -.00050633  00000+0 -91432-3 0  9990
2 56549  42.9977 276.2083 0001610 268.4268  69.5496 15.48945839  4820
STARLINK-6255           
1 56550U 23065AZ  23162.25001157 -.00032590  00000+0 -58522-3 0  9997
2 56550  42.9978 276.2145 0001647 264.1059  71.3472 15.48934231  4822
STARLINK-6199           
1 56551U 23065BA  23162.25001157 -.00069039  00000+0 -12514-2 0  9996
2 56551  42.9977 276.2037 0001568 268.4683  71.1898 15.48956118  4822
STARLINK-5802           
1 56552U 23065BB  23162.25001157 -.00045564  00000+0 -82174-3 0  9994
2 56552  42.9978 276.2091 0001650 263.3375  73.7977 15.48942444  4821
STARLINK-6074           
1 56553U 23065BC  23162.25001157 -.00081045  00000+0 -14720-2 0  9990
2 56553  42.9978 276.2020 0001579 263.3546  77.1441 15.48962395  4825
STARLINK-6295           
1 56554U 23065BD  23162.25001157 -.00062745  00000+0 -11360-2 0  9994
2 56554  42.9979 276.2068 0001607 264.4554  74.3615 15.48952160  4823
STARLINK-6252           
1 56555U 23065BE  23162.25001157 -.00093207  00000+0 -16960-2 0  9993
2 56555  42.9976 276.1980 0001525 265.8493  76.3313 15.48969827  4824
STARLINK-5302           
1 56556U 23065BF  23162.25001157 -.00087493  00000+0 -15907-2 0  9994
2 56556  42.9980 276.2000 0001552 264.2251  77.1146 15.48966304  4829
STARLINK-6265           
1 56557U 23065BG  23162.25001157 -.00097019  00000+0 -17663-2 0  9991
2 56557  42.9976 276.1958 0001495 264.9992  78.0223 15.48972939  4828
STARLINK-6286           
1 56558U 23065BH  23162.58334491 -.00006423  00000+0 -11019-3 0  9997
2 56558  42.9977 274.2516 0001482 272.8730 131.9356 15.48911988  4882
FALCON 9 DEB            
1 56559U 23065BJ  23161.74779463  .00461679  10003-3  83416-3 0  9991
2 56559  43.0132 273.9158 0009064 184.8431 175.2361 16.00659107  5171
FALCON 9 DEB            
1 56560U 23065BK  23161.73680024  .00482204  11011-3  82740-3 0  9992
2 56560  43.0074 273.8153 0007616 186.8143 173.2634 16.01566163  5176
FALCON 9 DEB            
1 56561U 23065BL  23162.21504074  .00567923  15614-3  87576-3 0  9994
2 56561  43.0062 270.4890 0005585 163.9707 196.1350 16.03389276  5258
